[{"OBJECT_NAME":"STARLINK-30928","OBJECT_ID":"2023-183R","EPOCH":"2026-03-09T22:00:01.999584","MEAN_MOTION":15.26728475,"ECCENTRICITY":0.00015168,"INCLINATION":43.0014,"RA_OF_ASC_NODE":40.0806,"ARG_OF_PERICENTER":255.5144,"MEAN_ANOMALY":45.4622,"EPHEMERIS_TYPE":0,"CLASSIFICATION_TYPE":"U","NORAD_CAT_ID":58452,"ELEMENT_SET_NO":999,"REV_AT_EPOCH":552,"BSTAR":0.0018034848,"MEAN_MOTION_DOT":0.00048418,"MEAN_MOTION_DDOT":0},{"OBJECT_NAME":"LIZZIESAT-1 (LS-1)","OBJECT_ID":"2024-043AL","EPOCH":"2026-03-09T21:24:55.126944","MEAN_MOTION":15.26635712,"ECCENTRICITY":0.00099234,"INCLINATION":97.5461,"RA_OF_ASC_NODE":203.4772,"ARG_OF_PERICENTER":229.9925,"MEAN_ANOMALY":130.0443,"EPHEMERIS_TYPE":0,"CLASSIFICATION_TYPE":"U","NORAD_CAT_ID":59132,"ELEMENT_SET_NO":999,"REV_AT_EPOCH":11178,"BSTAR":0.0002232873,"MEAN_MOTION_DOT":5.784e-5,"MEAN_MOTION_DDOT":0}]
